NORAD_CAT_ID,OBJECT_NAME,OBJECT_TYPE,EPOCH,MEAN_MOTION,ECCENTRICITY,INCLINATION,RA_OF_ASC_NODE,ARG_OF_PERICENTER,MEAN_ANOMALY,BSTAR,MEAN_MOTION_DOT,MEAN_MOTION_DDOT,TLE_LINE0,TLE_LINE1,TLE_LINE2,SEMIMAJOR_AXIS,PERIOD,APOGEE,PERIGEE,DECAYED
53908.0,STARLINK-5057,PAYLOAD,2022-10-11 22:00:00,15.73251644,0.0001237,53.2175,169.0946,100.6002,38.886,-0.00036159,-0.0005117,0.0,0 STARLINK-5057,1 53908U 22119Y   22284.91667824 -.00051170  00000-0 -36159-3 0  9994,2 53908  53.2175 169.0946 0001237 100.6002  38.8860 15.73251644  3102,6727.748000000001,91.53,350.445,348.781,0.0
53908.0,STARLINK-5057,PAYLOAD,2022-10-12 14:00:01,15.73165304,0.0001105999999999,53.2172,165.7832,105.1626,212.2786,0.00084221,0.00119089,0.0,0 STARLINK-5057,1 53908U 22119Y   22285.58334491  .00119089  00000-0  84221-3 0  9994,2 53908  53.2172 165.7832 0001106 105.1626 212.2786 15.73165304  3206,6727.994000000002,91.535,350.603,349.115,0.0
53908.0,STARLINK-5057,PAYLOAD,2022-10-12 22:00:00,15.73223793,0.0001044,53.2176,164.1293,93.7596,312.6316,-0.00023022,-0.00032835,0.0,0 STARLINK-5057,1 53908U 22119Y   22285.91667824 -.00032835  00000-0 -23022-3 0  9997,2 53908  53.2176 164.1293 0001044  93.7596 312.6316 15.73223793  3260,6727.8269999999975,91.532,350.395,348.99,0.0
53908.0,STARLINK-5057,PAYLOAD,2022-10-13 14:00:01,15.7302876,0.0001054,53.2167,160.8312,106.0648,118.3158,0.0016753,0.00239565,0.0,0 STARLINK-5057,1 53908U 22119Y   22286.58334491  .00239565  00000-0  16753-2 0  9991,2 53908  53.2167 160.8312 0001054 106.0648 118.3158 15.73028760  1307,6728.3830000000025,91.543,350.958,349.539,0.0
53908.0,STARLINK-5057,PAYLOAD,2022-10-13 20:00:01,15.73205369,0.0001046,53.2174,159.5908,104.1157,96.9195,-3.7845e-06,-1.151e-05,0.0,0 STARLINK-5057,1 53908U 22119Y   22286.83335648 -.00001151  00000-0 -37845-5 0  9992,2 53908  53.2174 159.5908 0001046 104.1157  96.9195 15.73205369  3403,6727.88,91.533,350.449,349.041,0.0
53908.0,STARLINK-5057,PAYLOAD,2022-10-13 22:00:00,15.73203867,0.0001034,53.2173,159.1787,99.377,213.8272,4.6711e-06,3.6e-07,0.0,0 STARLINK-5057,1 53908U 22119Y   22286.91667824  .00000036  00000-0  46711-5 0  9996,2 53908  53.2173 159.1787 0001034  99.3770 213.8272 15.73203867  1300,6727.884,91.533,350.445,349.05300000000005,0.0
53908.0,STARLINK-5057,PAYLOAD,2022-10-14 08:00:01,15.73189645,0.0001157,53.2172,157.1239,98.7448,55.7914,-0.00086653,-0.0012045,0.0,0 STARLINK-5057,1 53908U 22119Y   22287.33335648 -.00120450  00000-0 -86653-3 0  9991,2 53908  53.2172 157.1239 0001157  98.7448  55.7914 15.73189645  3484,6727.925,91.534,350.5680000000001,349.011,0.0
53908.0,STARLINK-5057,PAYLOAD,2022-10-14 14:00:01,15.73101951,0.0001449,53.2173,155.8808,106.1516,24.9707,0.001155,0.00163988,0.0,0 STARLINK-5057,1 53908U 22119Y   22287.58334491  .00163988  00000-0  11550-2 0  9997,2 53908  53.2173 155.8808 0001449 106.1516  24.9707 15.73101951  1307,6728.175,91.539,351.015,349.065,0.0
53908.0,STARLINK-5057,PAYLOAD,2022-10-14 16:00:00,15.73199886,0.000145,53.2175,155.467,105.7642,137.5429,7.1077e-05,9.366e-05,0.0,0 STARLINK-5057,1 53908U 22119Y   22287.66667824  .00009366  00000-0  71077-4 0  9996,2 53908  53.2175 155.4670 0001450 105.7642 137.5429 15.73199886  3532,6727.895,91.533,350.736,348.785,0.0
53908.0,STARLINK-5057,PAYLOAD,2022-10-14 22:00:00,15.73203662,0.0001414,53.2174,154.2301,101.1417,118.8654,5.8872e-06,2.06e-06,0.0,0 STARLINK-5057,1 53908U 22119Y   22287.91667824  .00000206  00000-0  58872-5 0  9997,2 53908  53.2174 154.2301 0001414 101.1417 118.8654 15.73203662  1302,6727.885,91.533,350.701,348.798,0.0
53908.0,STARLINK-5057,PAYLOAD,2022-10-15 14:00:01,15.73173971,0.000107,53.2163,150.9487,116.1224,281.9119,0.00032827,0.00045649,0.0,0 STARLINK-5057,1 53908U 22119Y   22288.58334491  .00045649  00000-0  32827-3 0  9992,2 53908  53.2163 150.9487 0001070 116.1224 281.9119 15.73173971  3688,6727.969,91.535,350.55400000000014,349.11400000000015,0.0
53908.0,STARLINK-5057,PAYLOAD,2022-10-15 22:00:01,15.7333315,9.02e-05,53.2166,149.2912,111.2432,15.7902,-0.0034404,-0.00460528,0.0,0 STARLINK-5057,1 53908U 22119Y   22288.91668981 -.00460528  00000-0 -34404-2 0  9994,2 53908  53.2166 149.2912 0000902 111.2432  15.7902 15.73333150  3731,6727.516,91.525,349.987,348.774,0.0
53908.0,STARLINK-5057,PAYLOAD,2022-10-16 06:00:00,15.73144873,7.6e-05,53.2164,147.6513,106.5555,109.259,0.00015483,0.00021113,0.0,0 STARLINK-5057,1 53908U 22119Y   22289.25001157  .00021113  00000-0  15483-3 0  9996,2 53908  53.2164 147.6513 0000760 106.5555 109.2590 15.73144873  3782,6728.052,91.536,350.42900000000014,349.406,0.0
53908.0,STARLINK-5057,PAYLOAD,2022-10-16 14:00:01,15.73155209,9.64e-05,53.2166,146.0008,114.5991,190.0878,0.0001919,0.00026345,0.0,0 STARLINK-5057,1 53908U 22119Y   22289.58334491  .00026345  00000-0  19190-3 0  9993,2 53908  53.2166 146.0008 0000964 114.5991 190.0878 15.73155209  1303,6728.023,91.536,350.536,349.23900000000015,0.0
53908.0,STARLINK-5057,PAYLOAD,2022-10-16 22:00:00,15.73151909,9.78e-05,53.2163,144.3537,98.7514,294.8076,0.00042236,0.0005895,0.0,0 STARLINK-5057,1 53908U 22119Y   22289.91667824  .00058950  00000-0  42236-3 0  9993,2 53908  53.2163 144.3537 0000978  98.7514 294.8076 15.73151909  1303,6728.031999999997,91.536,350.555,349.23900000000015,0.0
53908.0,STARLINK-5057,PAYLOAD,2022-10-17 14:00:01,15.73204905,0.0001107,53.216,141.0498,113.7138,97.7378,0.00073081,0.00103234,0.0,0 STARLINK-5057,1 53908U 22119Y   22290.58334491  .00103234  00000-0  73081-3 0  9997,2 53908  53.2160 141.0498 0001107 113.7138  97.7378 15.73204905  3992,6727.880999999999,91.533,350.491,349.001,0.0
53908.0,STARLINK-5057,PAYLOAD,2022-10-17 22:00:00,15.73258615,0.0001004,53.2164,139.4054,98.2203,202.161,-0.00053988,-0.00075895,0.0,0 STARLINK-5057,1 53908U 22119Y   22290.91667824 -.00075895  00000-0 -53988-3 0  9990,2 53908  53.2164 139.4054 0001004  98.2203 202.1610 15.73258615  4046,6727.728,91.53,350.269,348.918,0.0
53908.0,STARLINK-5057,PAYLOAD,2022-10-18 14:00:01,15.731404800000002,0.0001295,53.2166,136.1047,104.8431,13.4202,0.00050454,0.00070605,0.0,0 STARLINK-5057,1 53908U 22119Y   22291.58334491  .00070605  00000-0  50454-3 0  9992,2 53908  53.2166 136.1047 0001295 104.8431  13.4202 15.73140480  4155,6728.065,91.537,350.801,349.059,0.0
53908.0,STARLINK-5057,PAYLOAD,2022-10-18 22:00:00,15.73204461,0.0001187,53.2176,134.4356,98.9566,108.2612,5.974199999999999e-08,-6.11e-06,0.0,0 STARLINK-5057,1 53908U 22119Y   22291.91667824 -.00000611  00000-0  59742-7 0  9992,2 53908  53.2176 134.4356 0001187  98.9566 108.2612 15.73204461  1304,6727.882,91.533,350.546,348.949,0.0
53908.0,STARLINK-5057,PAYLOAD,2022-10-19 14:00:01,15.73213121,0.0001365,53.2161,131.1565,103.3335,281.6962,0.00039766,0.0005559,0.0,0 STARLINK-5057,1 53908U 22119Y   22292.58334491  .00055590  00000-0  39766-3 0  9992,2 53908  53.2161 131.1565 0001365 103.3335 281.6962 15.73213121  1304,6727.858,91.532,350.641,348.80400000000014,0.0
53908.0,STARLINK-5057,PAYLOAD,2022-10-19 22:00:00,15.73237266,0.0001226,53.2166,129.4982,97.014,16.9803,-0.0003392,-0.00048029,0.0,0 STARLINK-5057,1 53908U 22119Y   22292.91667824 -.00048029  00000-0 -33920-3 0  9995,2 53908  53.2166 129.4982 0001226  97.0140  16.9803 15.73237266  1300,6727.7890000000025,91.531,350.47900000000016,348.829,0.0
53908.0,STARLINK-5057,PAYLOAD,2022-10-20 06:00:00,15.73265129,0.0001127,53.2162,127.8581,93.7672,109.1918,-0.00061252,-0.00085946,0.0,0 STARLINK-5057,1 53908U 22119Y   22293.25001157 -.00085946  00000-0 -61252-3 0  9992,2 53908  53.2162 127.8581 0001127  93.7672 109.1918 15.73265129  4412,6727.709,91.529,350.333,348.816,0.0
53908.0,STARLINK-5057,PAYLOAD,2022-10-20 14:00:01,15.73237928,0.0001383,53.2162,126.2082,98.3884,193.5205,-0.00036745,-0.00051956,0.0,0 STARLINK-5057,1 53908U 22119Y   22293.58334491 -.00051956  00000-0 -36745-3 0  9991,2 53908  53.2162 126.2082 0001383  98.3884 193.5205 15.73237928  1308,6727.7869999999975,91.531,350.582,348.722,0.0
53908.0,STARLINK-5057,PAYLOAD,2022-10-20 22:00:00,15.73160441,0.0001517,53.2159,124.5569,86.9567,293.9143,0.00062232,0.00087484,0.0,0 STARLINK-5057,1 53908U 22119Y   22293.91667824  .00087484  00000-0  62232-3 0  9990,2 53908  53.2159 124.5569 0001517  86.9567 293.9143 15.73160441  4512,6728.0080000000025,91.535,350.894,348.852,0.0
53908.0,STARLINK-5057,PAYLOAD,2022-10-21 06:00:00,15.7324277,0.0001219,53.2155,122.9096,94.688,15.0928,-0.00054204,-0.00076144,0.0,0 STARLINK-5057,1 53908U 22119Y   22294.25001157 -.00076144  00000-0 -54204-3 0  9992,2 53908  53.2155 122.9096 0001219  94.6880  15.0928 15.73242770  4574,6727.773,91.531,350.458,348.8180000000001,0.0
53908.0,STARLINK-5057,PAYLOAD,2022-10-21 14:00:01,15.73218929,0.0001133,53.2157,121.2578,101.7441,96.999,0.00034908,0.00048695,0.0,0 STARLINK-5057,1 53908U 22119Y   22294.58334491  .00048695  00000-0  34908-3 0  9995,2 53908  53.2157 121.2578 0001133 101.7441  96.9990 15.73218929  4623,6727.840999999999,91.532,350.468,348.944,0.0
53908.0,STARLINK-5057,PAYLOAD,2022-10-21 22:00:00,15.73223666,0.0001014,53.2156,119.6121,82.3543,205.3342,-0.00037425,-0.00052865,0.0,0 STARLINK-5057,1 53908U 22119Y   22294.91667824 -.00052865  00000-0 -37425-3 0  9994,2 53908  53.2156 119.6121 0001014  82.3543 205.3342 15.73223666  4678,6727.828,91.532,350.375,349.01,0.0
53908.0,STARLINK-5057,PAYLOAD,2022-10-22 14:00:01,15.73228571,9.95e-05,53.2154,116.3111,90.5425,14.9817,-3.3755e-05,-5.36e-05,0.0,0 STARLINK-5057,1 53908U 22119Y   22295.58334491 -.00005360  00000-0 -33755-4 0  9990,2 53908  53.2154 116.3111 0000995  90.5425  14.9817 15.73228571  4789,6727.814,91.532,350.348,349.009,0.0
53908.0,STARLINK-5057,PAYLOAD,2022-10-22 22:00:00,15.73187501,8.49e-05,53.215,114.6632,67.5719,126.9419,0.00062863,0.0008849,0.0,0 STARLINK-5057,1 53908U 22119Y   22295.91667824  .00088490  00000-0  62863-3 0  9990,2 53908  53.2150 114.6632 0000849  67.5719 126.9419 15.73187501  1306,6727.931,91.534,350.367,349.225,0.0
